IRIDIUM 116             
1 43072U 17083C   25072.74276816  .00000104  00000+0  30220-4 0  9997
2 43072  86.4022 154.4921 0001962  97.7570 262.3848 14.34217830378171
IRIDIUM 130             
1 43073U 17083D   25072.78082356  .00000614  00000+0  21233-3 0  9995
2 43073  86.4031 154.7064 0002001  91.8263 268.3162 14.34217680378125
IRIDIUM 151             
1 43074U 17083E   25072.75545363  .00000253  00000+0  83400-4 0  9999
2 43074  86.4025 154.5340 0002144 100.2501 259.8937 14.34218365378140
IRIDIUM 134             
1 43075U 17083F   25072.79350865  .00000325  00000+0  10892-3 0  9999
2 43075  86.4024 154.5200 0002092  90.4491 269.6944 14.34219008378114
IRIDIUM 137             
1 43076U 17083G   25073.22480312  .00000111  00000+0  32686-4 0  9999
2 43076  86.4029 154.4230 0001726 109.9168 250.2214 14.34219606378246
IRIDIUM 141             
1 43077U 17083H   25073.21848531  .00000740  00000+0  25723-3 0  9991
2 43077  86.4021 154.2830 0002527  96.9587 263.1896 14.34222173378245
IRIDIUM 153             
1 43078U 17083J   25073.17064203  .00000507  00000+0  17406-3 0  9993
2 43078  86.3959 122.8091 0002737  93.8237 266.3272 14.34217079379340
IRIDIUM 131             
1 43079U 17083K   25072.78716387  .00000076  00000+0  20206-4 0  9991
2 43079  86.4027 154.6175 0002373 104.2724 255.8735 14.34218716378118
